MALLIGYONG-1            
1 58400U 23179A   24172.60264775  .00004761  00000+0  21710-3 0  9993
2 58400  97.4042  59.3950 0002755 137.8766 222.2682 15.21110180 32248
